OBJECT_NAME,OBJECT_ID,EPOCH,MEAN_MOTION,ECCENTRICITY,INCLINATION,RA_OF_ASC_NODE,ARG_OF_PERICENTER,MEAN_ANOMALY,EPHEMERIS_TYPE,CLASSIFICATION_TYPE,NORAD_CAT_ID,ELEMENT_SET_NO,REV_AT_EPOCH,BSTAR,MEAN_MOTION_DOT,MEAN_MOTION_DDOT
STARLINK-37624,2026-154Q,2026-07-22T13:56:44.748672,15.80921028,.00013364,53.1575,255.8127,45.9036,314.2097,0,U,69833,999,398,.10474222E-2,.211641E-2,0
STARLINK-37769,2026-154R,2026-07-22T13:55:39.877824,15.80900092,.00008579,53.1575,255.8072,104.7261,255.3857,0,U,69834,999,398,.79414471E-3,.159159E-2,0
STARLINK-37247,2026-154S,2026-07-22T13:54:34.919712,15.80908813,.00011947,53.1578,255.8017,129.3404,230.7724,0,U,69835,999,398,.76654395E-3,.153564E-2,0
STARLINK-37569,2026-154T,2026-07-22T13:53:29.671296,15.80936484,.00020138,53.1580,255.7975,166.0747,194.0331,0,U,69836,999,398,.97487961E-3,.196737E-2,0
STARLINK-37587,2026-154U,2026-07-22T13:52:25.443264,15.80923232,.00010899,53.1573,255.7922,98.9260,261.1886,0,U,69837,999,398,.112577E-2,.227983E-2,0
STARLINK-37590,2026-154V,2026-07-22T13:51:20.638080,15.80876706,.00011681,53.1576,255.7876,130.6530,229.4595,0,U,69838,999,398,.63872979E-3,.12726E-2,0
STARLINK-37589,2026-154W,2026-07-22T13:50:16.070496,15.80901362,.00014221,53.1576,255.7820,29.3033,330.8070,0,U,69839,999,398,.81242746E-3,.162921E-2,0
STARLINK-37487,2026-154X,2026-07-22T12:51:41.305536,15.80878916,.0002614,53.1594,255.5043,20.8064,339.3065,0,U,69840,999,398,.1950948E-3,.3799E-3,0
STARLINK-37433,2026-154Y,2026-07-22T12:51:50.556384,15.80826022,.00008798,53.1584,255.5043,68.5813,291.5304,0,U,69841,999,398,.17041633E-2,.348849E-2,0
STARLINK-37588,2026-154Z,2026-07-22T12:47:30.357600,15.80871476,.00028473,53.1585,255.4833,24.5826,335.5332,0,U,69842,999,398,.15743995E-2,.321891E-2,0
STARLINK-37579,2026-154AA,2026-07-22T12:47:53.660544,15.80888150,.00010727,53.1590,255.4866,87.3851,272.7295,0,U,69843,999,398,.36487551E-3,.71968E-3,0
STARLINK-37584,2026-154AB,2026-07-22T12:46:56.296128,15.80900360,.00039331,53.1596,255.4817,358.6684,1.4327,0,U,69844,999,398,.67228091E-3,.134284E-2,0
STARLINK-37606,2026-154AC,2026-07-22T12:45:37.620288,15.80935349,.00036473,53.1592,255.4744,351.9628,8.1336,0,U,69845,999,398,.74942126E-3,.150285E-2,0
STARLINK-37603,2026-154AD,2026-07-22T12:44:47.062464,15.80868217,.00015096,53.1590,255.4707,57.3129,302.8039,0,U,69846,999,398,.14250005E-2,.29014E-2,0
STARLINK-37595,2026-154AE,2026-07-22T12:43:28.041024,15.80904059,.00015917,53.1593,255.4635,78.7785,281.3417,0,U,69847,999,398,.10021858E-2,.202087E-2,0
QIANFAN-219,2026-155A,2026-07-22T14:14:31.499232,14.23742244,.00310948,89.0061,60.1044,196.7922,163.2244,0,U,69848,999,243,.61849141E-4,.156E-5,0
QIANFAN-220,2026-155B,2026-07-22T13:34:41.226816,14.17599083,.00301523,89.0061,60.1187,197.4711,162.5444,0,U,69849,999,242,.72160487E-4,.161E-5,0
QIANFAN-221,2026-155C,2026-07-22T14:06:45.664992,14.26649536,.00311564,89.0061,60.1036,198.2865,161.7211,0,U,69850,999,243,.83391645E-4,.217E-5,0
QIANFAN-222,2026-155D,2026-07-22T13:21:59.830272,14.18563596,.00293301,89.0061,60.1176,198.6449,161.3669,0,U,69851,999,242,.86951204E-4,.195E-5,0
QIANFAN-223,2026-155E,2026-07-22T13:13:54.001344,14.18586195,.00292216,89.0065,60.1171,198.1155,161.8996,0,U,69852,999,242,.90568972E-4,.202E-5,0
QIANFAN-224,2026-155F,2026-07-22T13:06:18.761472,14.20220602,.00302499,89.0049,60.1141,198.5292,161.4799,0,U,69853,999,242,.8574961E-4,.198E-5,0
QIANFAN-225,2026-155G,2026-07-22T13:04:16.040640,14.19332849,.00296584,89.0061,60.1155,197.7252,162.2906,0,U,69854,999,242,.75728757E-4,.174E-5,0
QIANFAN-226,2026-155H,2026-07-22T13:01:19.034688,14.19637058,.00304025,89.0060,60.1151,198.1193,161.8916,0,U,69855,999,242,.7913677E-4,.182E-5,0
QIANFAN-227,2026-155J,2026-07-22T12:52:40.848096,14.19928900,.00303389,89.0061,60.1144,197.6754,162.3384,0,U,69856,999,242,.81840069E-4,.189E-5,0
QIANFAN-228,2026-155K,2026-07-22T14:31:10.151040,14.20222735,.00301707,89.0062,60.1062,197.8683,162.1450,0,U,69857,999,243,.60911043E-4,.145E-5,0
QIANFAN-229,2026-155L,2026-07-22T14:19:03.745632,14.21820444,.00299674,89.0060,60.1047,197.2609,162.7566,0,U,69858,999,243,.20737754E-4,.6E-6,0
QIANFAN-230,2026-155M,2026-07-22T13:29:28.590144,14.17864500,.00293815,89.0056,60.1174,198.3459,161.6673,0,U,69859,999,242,.74255759E-4,.166E-5,0
QIANFAN-231,2026-155N,2026-07-22T14:18:34.504416,14.23685058,.00312564,89.0062,60.1051,196.8382,163.1776,0,U,69860,999,243,.5292733E-4,.136E-5,0
QIANFAN-232,2026-155P,2026-07-22T14:14:45.863232,14.23942840,.00304451,89.0060,60.1043,198.2232,161.7873,0,U,69861,999,243,.78252615E-4,.195E-5,0
QIANFAN-233,2026-155Q,2026-07-22T14:11:54.920832,14.23733804,.00304212,89.0063,60.1043,197.8063,162.2066,0,U,69862,999,243,.75006373E-4,.186E-5,0
