STARLINK-37624          
1 69833U 26154Q   26203.58107348  .00211641  00000+0  10474-2 0  9998
2 69833  53.1575 255.8127 0001336  45.9036 314.2097 15.80921028  3989
STARLINK-37769          
1 69834U 26154R   26203.58032266  .00159159  00000+0  79414-3 0  9990
2 69834  53.1575 255.8072 0000857 104.7261 255.3857 15.80900092  3987
STARLINK-37247          
1 69835U 26154S   26203.57957083  .00153564  00000+0  76654-3 0  9990
2 69835  53.1578 255.8017 0001194 129.3404 230.7724 15.80908813  3986
STARLINK-37569          
1 69836U 26154T   26203.57881564  .00196737  00000+0  97488-3 0  9998
2 69836  53.1580 255.7975 0002013 166.0747 194.0331 15.80936484  3982
STARLINK-37587          
1 69837U 26154U   26203.57807226  .00227983  00000+0  11258-2 0  9990
2 69837  53.1573 255.7922 0001089  98.9260 261.1886 15.80923232  3980
STARLINK-37590          
1 69838U 26154V   26203.57732220  .00127260  00000+0  63873-3 0  9990
2 69838  53.1576 255.7876 0001168 130.6530 229.4595 15.80876706  3981
STARLINK-37589          
1 69839U 26154W   26203.57657489  .00162921  00000+0  81243-3 0  9998
2 69839  53.1576 255.7820 0001422  29.3033 330.8070 15.80901362  3988
STARLINK-37487          
1 69840U 26154X   26203.53589474  .00037990  00000+0  19509-3 0  9997
2 69840  53.1594 255.5043 0002614  20.8064 339.3065 15.80878916  3985
STARLINK-37433          
1 69841U 26154Y   26203.53600181  .00348849  00000+0  17042-2 0  9994
2 69841  53.1584 255.5043 0000879  68.5813 291.5304 15.80826022  3983
STARLINK-37588          
1 69842U 26154Z   26203.53299025  .00321891  00000+0  15744-2 0  9991
2 69842  53.1585 255.4833 0002847  24.5826 335.5332 15.80871476  3987
STARLINK-37579          
1 69843U 26154AA  26203.53325996  .00071968  00000+0  36488-3 0  9995
2 69843  53.1590 255.4866 0001072  87.3851 272.7295 15.80888150  3981
STARLINK-37584          
1 69844U 26154AB  26203.53259602  .00134284  00000+0  67228-3 0  9993
2 69844  53.1596 255.4817 0003933 358.6684   1.4327 15.80900360  3981
STARLINK-37606          
1 69845U 26154AC  26203.53168542  .00150285  00000+0  74942-3 0  9996
2 69845  53.1592 255.4744 0003647 351.9628   8.1336 15.80935349  3982
STARLINK-37603          
1 69846U 26154AD  26203.53110026  .00290140  00000+0  14250-2 0  9991
2 69846  53.1590 255.4707 0001509  57.3129 302.8039 15.80868217  3981
STARLINK-37595          
1 69847U 26154AE  26203.53018566  .00202087  00000+0  10022-2 0  9994
2 69847  53.1593 255.4635 0001591  78.7785 281.3417 15.80904059  3987
QIANFAN-219             
1 69848U 26155A   26203.59342013  .00000156  00000+0  61849-4 0  9997
2 69848  89.0061  60.1044 0031094 196.7922 163.2244 14.23742244  2433
QIANFAN-220             
1 69849U 26155B   26203.56575494  .00000161  00000+0  72160-4 0  9990
2 69849  89.0061  60.1187 0030152 197.4711 162.5444 14.17599083  2427
QIANFAN-221             
1 69850U 26155C   26203.58802853  .00000217  00000+0  83392-4 0  9997
2 69850  89.0061  60.1036 0031156 198.2865 161.7211 14.26649536  2439
QIANFAN-222             
1 69851U 26155D   26203.55694248  .00000195  00000+0  86951-4 0  9991
2 69851  89.0061  60.1176 0029330 198.6449 161.3669 14.18563596  2422
QIANFAN-223             
1 69852U 26155E   26203.55131946  .00000202  00000+0  90569-4 0  9992
2 69852  89.0065  60.1171 0029221 198.1155 161.8996 14.18586195  2428
QIANFAN-224             
1 69853U 26155F   26203.54605048  .00000198  00000+0  85750-4 0  9991
2 69853  89.0049  60.1141 0030249 198.5292 161.4799 14.20220602  2424
QIANFAN-225             
1 69854U 26155G   26203.54463010  .00000174  00000+0  75729-4 0  9992
2 69854  89.0061  60.1155 0029658 197.7252 162.2906 14.19332849  2427
QIANFAN-226             
1 69855U 26155H   26203.54258142  .00000182  00000+0  79137-4 0  9997
2 69855  89.0060  60.1151 0030402 198.1193 161.8916 14.19637058  2427
QIANFAN-227             
1 69856U 26155J   26203.53658389  .00000189  00000+0  81840-4 0  9995
2 69856  89.0061  60.1144 0030338 197.6754 162.3384 14.19928900  2420
QIANFAN-228             
1 69857U 26155K   26203.60497860  .00000145  00000+0  60911-4 0  9997
2 69857  89.0062  60.1062 0030170 197.8683 162.1450 14.20222735  2436
QIANFAN-229             
1 69858U 26155L   26203.59657113  .00000060  00000+0  20738-4 0  9994
2 69858  89.0060  60.1047 0029967 197.2609 162.7566 14.21820444  2438
QIANFAN-230             
1 69859U 26155M   26203.56213646  .00000166  00000+0  74256-4 0  9992
2 69859  89.0056  60.1174 0029381 198.3459 161.6673 14.17864500  2422
QIANFAN-231             
1 69860U 26155N   26203.59623269  .00000136  00000+0  52927-4 0  9991
2 69860  89.0062  60.1051 0031256 196.8382 163.1776 14.23685058  2435
QIANFAN-232             
1 69861U 26155P   26203.59358638  .00000195  00000+0  78253-4 0  9992
2 69861  89.0060  60.1043 0030445 198.2232 161.7873 14.23942840  2431
QIANFAN-233             
1 69862U 26155Q   26203.59160788  .00000186  00000+0  75006-4 0  9993
2 69862  89.0063  60.1043 0030421 197.8063 162.2066 14.23733804  2434
